COSMOS 2534 [GLONASS-M] 
1 44299U 19030A   26197.64953360  .00000052  00000+0  00000+0 0  9997
2 44299  64.3705 191.6243 0013502 275.0108 146.6615  2.13102191 55554
BEIDOU-3 IGSO-2         
1 44337U 19035A   26201.28533594 -.00000108  00000+0  00000+0 0  9997
2 44337  55.2517 158.5718 0039266 216.3906 144.0267  1.00256016 26009
NAVSTAR 78 (USA 293)    
1 44506U 19056A   26202.04950725 -.00000110  00000+0  00000+0 0  9995
2 44506  55.6187 329.7967 0063670 198.2481 160.1560  2.00570401 50745
BEIDOU-3 M24            
1 44542U 19061A   26200.99661819  .00000073  00000+0  00000+0 0  9993
2 44542  54.3974 181.6213 0008700 359.9963 359.9812  1.86229210 46406
BEIDOU-3 M23            
1 44543U 19061B   26201.24462873  .00000075  00000+0  00000+0 0  9994
2 44543  54.3961 181.5811 0006013 341.7340  95.9084  1.86227453 46415
EUTELSAT 5 WEST B       
1 44624U 19067A   26202.25890729 -.00000041  00000+0  00000+0 0  9991
2 44624   0.0747 324.3530 0003215 154.4149 268.4460  1.00271767 24770
BEIDOU-3 M22            
1 44793U 19078A   26201.37395025 -.00000097  00000+0  00000+0 0  9992
2 44793  53.9034 298.6592 0005612  50.4181 309.6692  1.86227188 45262
BEIDOU-3 M21            
1 44794U 19078B   26200.97683179 -.00000096  00000+0  00000+0 0  9997
2 44794  53.8770 298.6333 0003525  49.7600 310.3090  1.86227606 45266
COSMOS 2544 [GLONASS-M] 
1 44850U 19088A   26199.93909424 -.00000038  00000+0  00000+0 0  9994
2 44850  65.5828  72.6716 0012049 253.1294 106.8089  2.13102904 51390
BEIDOU-3 M19            
1 44864U 19090A   26200.30539355 -.00000073  00000+0  00000+0 0  9997
2 44864  56.5872  61.7289 0016607 297.5472 169.9419  1.86231477 44837
BEIDOU-3 M20            
1 44865U 19090B   26201.33798360 -.00000078  00000+0  00000+0 0  9990
2 44865  56.5902  61.7294 0013750 313.4468 215.9166  1.86231473 44834
BEIDOU-3 G2             
1 45344U 20017A   26202.13318098 -.00000142  00000+0  00000+0 0  9991
2 45344   2.9319  47.8278 0001971  56.9647 322.0745  1.00272562 23606
COSMOS 2545 [GLONASS-M] 
1 45358U 20018A   26201.07254601 -.00000083  00000+0  00000+0 0  9992
2 45358  64.3333 311.2627 0009901 230.0825 129.8537  2.13102411 49362
BEIDOU-3 G3             
1 45807U 20040A   26202.28178740 -.00000354  00000+0  00000+0 0  9990
2 45807   2.5292  67.5054 0002314 313.4352 130.0854  1.00273799 22412
NAVSTAR 79 (USA 304)    
1 45854U 20041A   26201.89744807 -.00000087  00000+0  00000+0 0  9995
2 45854  56.6926  27.6360 0065502 204.6753 340.8282  2.00557989 44719
GALAXY 30 (G-30)        
1 46114U 20056C   26202.24488718  .00000038  00000+0  00000+0 0  9992
2 46114   0.0180  61.3569 0002180  54.6267 146.1755  1.00270846 21637
COSMOS 2547 [GLONASS-K] 
1 46805U 20075A   26201.26230815  .00000083  00000+0  00000+0 0  9994
2 46805  64.6016 191.3717 0009465 239.9348 119.9732  2.13099966 44611
NAVSTAR 80 (USA 309)    
1 46826U 20078A   26201.40901153  .00000066  00000+0  00000+0 0  9997
2 46826  53.9767 209.4308 0074664 207.9413 322.4110  2.00565064 42179
NAVSTAR 81 (USA 319)    
1 48859U 21054A   26201.98524355 -.00000111  00000+0  00000+0 0  9990
2 48859  55.1563 331.1007 0026577 228.5853 184.1993  2.00567042 37434
QZS-1R (MICHIBIKI-1R)   
1 49336U 21096A   26200.56101544 -.00000322  00000+0  00000+0 0  9995
2 49336  37.5263  79.1015 0755512 272.3091 279.1178  1.00244085 17338
GSAT0223 (GALILEO 27)   
1 49809U 21116A   26201.37308213 -.00000107  00000+0  00000+0 0  9996
2 49809  57.1482 340.7789 0002482 195.0305 131.7493  1.70476368 28747
GSAT0224 (GALILEO 28)   
1 49810U 21116B   26200.95392787 -.00000107  00000+0  00000+0 0  9990
2 49810  57.1487 340.7887 0001903 182.1498   0.0180  1.70476408 28768
COSMOS 2557 [GLONASS-K] 
1 52984U 22075A   26200.48789767 -.00000080  00000+0  00000+0 0  9997
2 52984  64.2776 313.3470 0010902 270.7384  89.1574  2.13102100 31408
COSMOS 2559 [GLONASS-K] 
1 54031U 22130A   26201.24612110 -.00000085  00000+0  00000+0 0  9991
2 54031  64.2495 313.4030 0013165 181.6357 178.3807  2.13101775 29390
COSMOS 2564 [GLONASS-M] 
1 54377U 22161A   26202.02773781  .00000090  00000+0  00000+0 0  9992
2 54377  64.7442 191.5883 0012178 224.7321 135.1739  2.13102069 28351
NAVSTAR 82 (USA 343)    
1 55268U 23009A   26201.60569105  .00000029  00000+0  00000+0 0  9992
2 55268  55.1257 147.2053 0005286 339.0004 198.4380  2.00569363 25919
BEIDOU-3 G4             
1 56564U 23066A   26202.28759409 -.00000280  00000+0  00000+0 0  9998
2 56564   0.4557 340.6994 0005088 183.1826  18.7652  1.00271012 11739
NVS-01 (IRNSS-1J)       
1 56759U 23076A   26202.28551407 -.00000333  00000+0  00000+0 0  9992
2 56759   2.0876 242.7875 0002952  18.4158 270.1155  1.00276126 11454
COSMOS 2569 [GLONASS-K2]
1 57517U 23114A   26202.04001661 -.00000052  00000+0  00000+0 0  9992
2 57517  65.3217  71.4791 0009477 295.3597  64.6087  2.13103846 22987
BEIDOU-3 M28            
1 58654U 23207A   26202.12766076 -.00000082  00000+0  00000+0 0  9998
2 58654  55.7832  61.1582 0002229   8.8323 351.2326  1.86229790 17477
BEIDOU-3 M26            
1 58655U 23207B   26200.85124257 -.00000078  00000+0  00000+0 0  9991
2 58655  55.7843  61.1877 0001767 324.3681  35.6824  1.86229761 17436
